{"type":"FeatureCollection","features":[{"type":"Feature","geometry":{"type":"Polygon","coordinates":[[[-87.42112199985047,39.529696999941685],[-87.421219999759757,39.525710999831311],[-87.420396000302475,39.523157000242044],[-87.420345000248844,39.522997000174001],[-87.419303000333329,39.521152999861926],[-87.41851999998562,39.520436000293692],[-87.418319999969071,39.520416000128073],[-87.418031000264079,39.52038699980848],[-87.417719999919456,39.520356000289759],[-87.417519999902893,39.520336000101111],[-87.411501000038413,39.52038799974801],[-87.408684000088414,39.520411999678508],[-87.407140999857489,39.520426000211621],[-87.406926999597232,39.520429999967419],[-87.406664999656428,39.520422999701609],[-87.406129000079233,39.520430999906324],[-87.406117000383645,39.520429999967419],[-87.404764000123521,39.520428000089545],[-87.404476000243434,39.520429000028493],[-87.403928999897261,39.520430999906324],[-87.403610999879945,39.520438000171325],[-87.402743000041724,39.520443999803938],[-87.402536000352484,39.520441999926469],[-87.400440999752519,39.520453999883401],[-87.400136000153992,39.52045200000623],[-87.399449000065729,39.520458000330592],[-87.39915299978972,39.520456999699107],[-87.398823999901751,39.520456999699107],[-87.398207000133695,39.520463999961486],[-87.397959000436572,39.520463000023049],[-87.397788999658943,39.520460000207599],[-87.397730000107714,39.520460000207599],[-87.397043000019451,39.520469000346417],[-87.396813999690593,39.520473000099777],[-87.396581000062085,39.520474000038071],[-87.396215000364208,39.520477999791147],[-87.395882000278277,39.52047899972937],[-87.395648999751458,39.52048100029873],[-87.395413999574799,39.52048200023691],[-87.39471099959303,39.520486999927634],[-87.394477000139602,39.520489999741855],[-87.394242999787892,39.5204909996799],[-87.39354200035423,39.520494000186979],[-87.393308999827411,39.520496000062948],[-87.393077999848742,39.520497000000908],[-87.392388000285735,39.520501999690545],[-87.392158000131957,39.520504000259258],[-87.391919999582285,39.520506000134922],[-87.39120800027797,39.520510999823919],[-87.390970999553204,39.520514000330081],[-87.390733999726734,39.520516000205468],[-87.390024000072259,39.520520999893748],[-87.389788000070709,39.520523999706555],[-87.389553999718984,39.520525000337081],[-87.389234000051843,39.52052800014966],[-87.388854000110229,39.520530000024657],[-87.388620999583409,39.520531999899639],[-87.388147999755418,39.520533999774507],[-87.386729000271359,39.520541999966426],[-87.386581999958267,39.520542999903732],[-87.386334000261144,39.520547000345751],[-87.386257000268259,39.520547000345751],[-87.385788999564795,39.520549000220235],[-87.38438599997427,39.520554999843263],[-87.383918999994023,39.520557999654557],[-87.383766999658079,39.520557999654557],[-87.383312000271729,39.52056000022165],[-87.383160999760676,39.520562000095708],[-87.382851999964188,39.520563000032773],[-87.381928000049456,39.520567999717606],[-87.381620000077888,39.520570000284415],[-87.381343000068441,39.520571000221359],[-87.380515000413197,39.520575999905617],[-87.38023900022867,39.520577999779277],[-87.380040999861961,39.520578999716058],[-87.379446999660118,39.520584000092711],[-87.379250000016626,39.520586999902797],[-87.379209000008743,39.520586999902797],[-87.379004999794233,39.520586999902797],[-87.378392000224139,39.520587999839442],[-87.378188999834549,39.520588999776088],[-87.378061999612939,39.520588999776088],[-87.377784999603506,39.520589999712705],[-87.376576000181743,39.520596000025165],[-87.376368999594206,39.520597999898186],[-87.376172999775605,39.520593000215456],[-87.376156000057179,39.520592000278882],[-87.376105000003548,39.520591000342286],[-87.376089000110028,39.520591000342286],[-87.376059999797704,39.520588999776088],[-87.375972999759085,39.520585999966137],[-87.375945000169992,39.520585999966137],[-87.375792999834019,39.520586999902797],[-87.374779000405923,39.520605000146354],[-87.372585999896657,39.520614000266377],[-87.371908999854156,39.520620999819961],[-87.371610999928322,39.520621999756123],[-87.37071999962555,39.520626000193644],[-87.370671999944975,39.520627000129728],[-87.370424000247866,39.520629999937917],[-87.370255000193467,39.520630999873944],[-87.369748999855162,39.520636000246903],[-87.369580999625683,39.52063800011878],[-87.369491000112305,39.52063800011878],[-87.36922199960047,39.520640999926542],[-87.369195999661216,39.520641999862413],[-87.369132999912026,39.520642999798277],[-87.369029999979858,39.520642999798277],[-87.368723999658101,39.520642999798277],[-87.368621999550854,39.520642999798277],[-87.368313999579286,39.520642999798277],[-87.36827799959427,39.520642999798277],[-87.368069000255218,39.520650000041904],[-87.367613999970544,39.520650999977647],[-87.367392000212703,39.520653999784791],[-87.367085000066041,39.520659000156094],[-87.366983999783685,39.520660000091709],[-87.366674999987211,39.52066100002731],[-87.366597000169392,39.520661999962897],[-87.366084999983315,39.520672000011025],[-87.365444999750721,39.520672000011025],[-87.365356000062263,39.520672000011025],[-87.365036000395122,39.520680000187063],[-87.365017999953466,39.520680000187063],[-87.364928000440102,39.520680000187063],[-87.3644639999346,39.520680000187063],[-87.363800000310874,39.520682000057668],[-87.363120999720223,39.520675999752655],[-87.363074999689474,39.520675999752655],[-87.362611999907202,39.520682000057668],[-87.362437999829922,39.520681000122373],[-87.362149999949835,39.520685999798765],[-87.362124999835473,39.520686999733996],[-87.361718000129699,39.520686999733996],[-87.360852999766209,39.520686999733996],[-87.360766999552482,39.520686999733996],[-87.360306000318346,39.520693000038008],[-87.359859000429608,39.52069399997319],[-87.358570999568499,39.520696999778473],[-87.358518999689963,39.520696999778473],[-87.358072999626117,39.520702000146684],[-87.357670999943224,39.520700000276598],[-87.357423000246101,39.520699000341565],[-87.356468000369219,39.520704000016657],[-87.356066999612921,39.52070699982152],[-87.355674999975761,39.520710000319255],[-87.354585000379686,39.520718999732715],[-87.354499000165958,39.520717999797952],[-87.354356000050828,39.520716999863168],[-87.354108000353705,39.520719999667463],[-87.353961000040627,39.520721000295168],[-87.353519999999648,39.520725999968683],[-87.353437999983882,39.520727999837966],[-87.353374000409787,39.520728999772587],[-87.352878000117229,39.520725999968683],[-87.352444999573876,39.520729999707193],[-87.351966999722976,39.520725999968683],[-87.350822999700242,39.520733000203947],[-87.350765999798838,39.520727999837966],[-87.350617999660827,39.520725999968683],[-87.350231000046534,39.520734000138489],[-87.348599999952057,39.520743000241808],[-87.346434000105305,39.52072500003402],[-87.345680999894796,39.520665999705145],[-87.34549199974893,39.520660000091709],[-87.345444999893246,39.520658000220472],[-87.34481100040675,39.520650999977647],[-87.343747999676552,39.520654999720527],[-87.343258999955012,39.520663999834078],[-87.343028999801234,39.520680000187063],[-87.34255900034627,39.520724000099293],[-87.342340999888066,39.520737999876538],[-87.34175699973197,39.520761999686101],[-87.340944999970233,39.520757999949431],[-87.340171999668243,39.520781999752082],[-87.339215999966484,39.5207990000115],[-87.338211999685797,39.520782999685927],[-87.337666000062868,39.520763000313202],[-87.336925000446243,39.520737999876538],[-87.336229000137152,39.520729999707193],[-87.332828000031057,39.520746999979337],[-87.332386999990092,39.520748999848074],[-87.331066000415319,39.520755000146728],[-87.33062600019926,39.520757999949431],[-87.327893999739743,39.520729999707193],[-87.319698000157857,39.520648000170368],[-87.31696599969834,39.520620999819961],[-87.314277999619748,39.52063800011878],[-87.294717999978332,39.520437000232512],[-87.294711000305625,39.52058100028254],[-87.294693999688874,39.521013000027182],[-87.294688999666022,39.52115800019731],[-87.294671999947568,39.52155299991378],[-87.294625000091912,39.5227409998528],[-87.294618000419206,39.522936999793615],[-87.294618000419206,39.523137000167097],[-87.294926000390788,39.529046000181545],[-87.294917999994865,39.530867000167333],[-87.295080000376572,39.537613000232632],[-87.295097000095012,39.537643999668397],[-87.295114999638358,39.537676000166506],[-87.295126000407336,39.537714999865955],[-87.295131000430203,39.537747000331279],[-87.295134999729839,39.537772999875806],[-87.295134999729839,39.537783999920016],[-87.29513700027799,39.537832999906705],[-87.295143000125762,39.537981000038279],[-87.295145999600507,39.538031000264226],[-87.295147000323723,39.538049000142699],[-87.295140999577626,39.538592000288169],[-87.295135999554759,39.539217000217377],[-87.295149999798468,39.540277000171621],[-87.295158000194391,39.540838999699012],[-87.295159000019297,39.540931000233485],[-87.295162000392338,39.541109999960085],[-87.295155999646241,39.541208999691861],[-87.29515200034659,39.541302000066999],[-87.295150999623374,39.54135500027715],[-87.295149999798468,39.541517000263518],[-87.295149999798468,39.541570999943971],[-87.29515200034659,39.541599999729385],[-87.29515300017151,39.541614000147028],[-87.295155999646241,39.541689999989593],[-87.295158000194391,39.541720999682717],[-87.295159000019297,39.541755000335833],[-87.295158000194391,39.541945999722017],[-87.295155999646241,39.542623999863302],[-87.295155999646241,39.542665000176463],[-87.295159999844202,39.54285000005482],[-87.295159999844202,39.543012000015139],[-87.295159999844202,39.543497999705316],[-87.295160999669122,39.543660000231206],[-87.295160999669122,39.543843000331833],[-87.295162000392338,39.543960000052472],[-87.295165999691974,39.544393999696965],[-87.295168000240125,39.544578000224121],[-87.295169000065044,39.544631000010625],[-87.295160999669122,39.545372999698628],[-87.295162000392338,39.545703000151491],[-87.295164000042163,39.545870000320015],[-87.295158000194391,39.546362999812686],[-87.295154999821321,39.547430999933844],[-87.295164000042163,39.548994999725721],[-87.295164999867083,39.549080999909641],[-87.295169000065044,39.549290999862563],[-87.295174000087897,39.549546999954792],[-87.295165999691974,39.550206999764626],[-87.295165999691974,39.550227999863274],[-87.295169999889936,39.550305999679459],[-87.295179000110778,39.551309999909485],[-87.295179999935698,39.551696000310599],[-87.295185999783484,39.553096000332445],[-87.295209000248008,39.554658999729234],[-87.295210999897833,39.555273999802743],[-87.295219000293741,39.555847999846513],[-87.295219000293741,39.556101999749707],[-87.295219000293741,39.55698100003994],[-87.295225999966462,39.557570999972498],[-87.29521699974562,39.559037000024368],[-87.295210000072913,39.560414000213534],[-87.295213000445969,39.560626999954458],[-87.295204000225141,39.561287999664302],[-87.295204000225141,39.563434999866409],[-87.295204000225141,39.563835000063051],[-87.295198000377354,39.564095999821831],[-87.295200999852071,39.564646999703122],[-87.295193000354473,39.564900999932462],[-87.295176999562642,39.565707999659395],[-87.295132000255109,39.568129999911008],[-87.295117000186494,39.568938000077793],[-87.295006999683324,39.578536000311068],[-87.29491700016996,39.581238000280415],[-87.29497900009423,39.584047999880809],[-87.295116000361574,39.590158999687681],[-87.295263999601275,39.592473999903696],[-87.295445000249558,39.595279999747454],[-87.29543500020381,39.595492999664131],[-87.29543400037889,39.595533000326157],[-87.29543400037889,39.595842999655055],[-87.295441000051596,39.595986000137287],[-87.295456000120211,39.596072000193139],[-87.295478999686438,39.596129000324268],[-87.295504999625706,39.596165999922817],[-87.295543999983749,39.596206999735514],[-87.295631999847302,39.596278000214731],[-87.295589000189608,39.596333999946665],[-87.29556200042542,39.596381999878645],[-87.295538000135977,39.596442999974954],[-87.295521000417537,39.596504000017525],[-87.295517000219576,39.596627999700218],[-87.295518000044495,39.597168999788231],[-87.295514999671454,39.597373000271205],[-87.295507999998733,39.598114999831488],[-87.295473999663557,39.598456000011147],[-87.295466000165945,39.598608000331737],[-87.295463999617809,39.600743000027805],[-87.295463999617809,39.601667999965507],[-87.295455000295291,39.601867000291691],[-87.295483999709305,39.603123999944827],[-87.295574000120993,39.60689599981248],[-87.295604000258209,39.608154000286433],[-87.295866000199041,39.608151000109501],[-87.29592700029842,39.608151000109501],[-87.296653999671321,39.608150000050465],[-87.296729000014381,39.608150000050465],[-87.29691700033537,39.608151000109501],[-87.296946999574274,39.608151000109501],[-87.297036999985963,39.608151000109501],[-87.297067999948112,39.608152000168502],[-87.297447999889712,39.608154000286433],[-87.297575999936228,39.608154000286433],[-87.299103000273618,39.608155000345405],[-87.29961200008664,39.608155999712267],[-87.299775000293252,39.608152000168502],[-87.300091999587352,39.608152000168502],[-87.300721999774197,39.608154000286433],[-87.300946000080188,39.608157999830077],[-87.301531999886109,39.608159999947837],[-87.30196299988134,39.608163000124392],[-87.302013000110051,39.60816400018323],[-87.302463000371844,39.608169999843803],[-87.302849000161217,39.608166000300855],[-87.302896999841792,39.608166000300855],[-87.303788000144564,39.60817400007857],[-87.304055000108249,39.608171999961215],[-87.305091000175977,39.608176000195911],[-87.305357000314743,39.608178000313153],[-87.306179000122214,39.608185000031007],[-87.306194000190828,39.608185000031007],[-87.306256999940018,39.608182999913971],[-87.306405999902935,39.608179999738283],[-87.306446000085913,39.608179999738283],[-87.306509999660022,39.608180999796822],[-87.306764000103229,39.608181999855411],[-87.307529000009296,39.608186000089525],[-87.307784000277422,39.608188000206475],[-87.309089999783566,39.608194999923313],[-87.309540000045359,39.608198000098398],[-87.310300999753451,39.608211000163301],[-87.310889999932442,39.608228999823268],[-87.311340000194221,39.608227999765361],[-87.31300800009862,39.608245000055355],[-87.313525000307564,39.608250999708915],[-87.31431500032798,39.608250000343432],[-87.314862999600763,39.608229999881104],[-87.315284000448557,39.608229999881104],[-87.316224000256796,39.608229999881104],[-87.317508000021633,39.608238999709229],[-87.318194000285004,39.608235000170261],[-87.318361999616158,39.608235000170261],[-87.319165000055392,39.608240999824638],[-87.319596999875515,39.608243999997676],[-87.319949000228007,39.608240999824638],[-87.320136999650671,39.60824199988236],[-87.321202000030709,39.608250000343432],[-87.323053000233202,39.608249000285831],[-87.323321000021807,39.608249000285831],[-87.323736999948423,39.608252999823989],[-87.324025999653415,39.608248000228222],[-87.324191000408163,39.608251999766431],[-87.324326000127385,39.608251999766431],[-87.325225999752661,39.608257000054003],[-87.325527000051537,39.608259000168893],[-87.325566000409609,39.608259000168893],[-87.325696000105935,39.608257000054003],[-87.326205999743891,39.608250999708915],[-87.326375999623195,39.608249000285831],[-87.326563999944156,39.608247000170643],[-87.32712800000877,39.608242999940046],[-87.327317000154665,39.60824199988236],[-87.327450000224061,39.608240999824638],[-87.327849000432224,39.608238000343562],[-87.32798199960331,39.608237000285797],[-87.328662000018866,39.608239999766965],[-87.328988000432119,39.608234000112454],[-87.329841000201711,39.608230999938968],[-87.330210000272658,39.608230999938968],[-87.331238999769369,39.608234000112454],[-87.334351999995391,39.608228999823268],[-87.334951000220101,39.608223000167797],[-87.335418000200335,39.608225000283724],[-87.335595999577237,39.608226999707455],[-87.337277999725345,39.608226000341624],[-87.33939000004375,39.608222000109862],[-87.340938000297541,39.608225000283724],[-87.341059999597974,39.608226999707455],[-87.341151999659459,39.608228999823268],[-87.344536999872062,39.608216999819774],[-87.348640999959954,39.608218999935872],[-87.350559000109612,39.608225000283724],[-87.351854999569994,39.608225000283724],[-87.352408999588874,39.608223000167797],[-87.353285999647923,39.608219999993842],[-87.354638000083128,39.608225000283724],[-87.355956000183141,39.608229999881104],[-87.35619200018472,39.608229999881104],[-87.357173000000842,39.608228999823268],[-87.357420999697965,39.608228999823268],[-87.359758000147252,39.608210000105139],[-87.360116000347546,39.608204999814234],[-87.360960999721243,39.608195999981696],[-87.361097999988587,39.608190000323411],[-87.361241000103718,39.608183999972518],[-87.361477000105268,39.608175000137251],[-87.361672000098949,39.608170999902498],[-87.361816000038985,39.608168999785057],[-87.361843999628093,39.608167999726291],[-87.361932000389942,39.608165000242046],[-87.361960999803941,39.608165000242046],[-87.361991999766076,39.608165000242046],[-87.362088000025551,39.608167999726291],[-87.362119999812592,39.608168999785057],[-87.362204000376494,39.608167999726291],[-87.362459999571229,39.608165000242046],[-87.362544999960051,39.608165000242046],[-87.362939999970251,39.608156999771161],[-87.36298199980304,39.608156999771161],[-87.364128000373924,39.608150000050465],[-87.364495999721655,39.608147999932427],[-87.364525000033964,39.608147999932427],[-87.365752999722304,39.608133999796436],[-87.367651999605386,39.608113999992696],[-87.369440000058674,39.608099999849827],[-87.370307999896923,39.608094000183236],[-87.370668999571933,39.608080000036331],[-87.371045000213883,39.608076999856173],[-87.372174999992936,39.608072000247702],[-87.37255199956148,39.608071000187586],[-87.372945999746761,39.608069000067204],[-87.373400000206544,39.608073000307854],[-87.373892000301112,39.608068000007052],[-87.375542999588774,39.608053999854882],[-87.377076999598842,39.608045000002711],[-87.377911999825102,39.608031999906643],[-87.378155000397683,39.608028999724411],[-87.379253000389667,39.608025000173313],[-87.379379999712967,39.608025000173313],[-87.379458000429082,39.608025000173313],[-87.379489000391231,39.60802300005161],[-87.379588000125437,39.608018999808124],[-87.379840999845413,39.608016999686249],[-87.380101000136406,39.608029999785138],[-87.380168999908477,39.608028999724411],[-87.380198000220801,39.608026000234098],[-87.380329999566953,39.608016000317384],[-87.380435000047257,39.608016000317384],[-87.380546000375332,39.608005999707125],[-87.380882999760914,39.607977000005455],[-87.380994999913909,39.60796800014333],[-87.381034000271967,39.607960999711445],[-87.381153000097655,39.607942999981809],[-87.381193000280632,39.607937000301604],[-87.38121699967175,39.607937000301604],[-87.381292999839744,39.607937000301604],[-87.381317999954092,39.607937000301604],[-87.381537000237216,39.607937000301604],[-87.382198000386211,39.607937000301604],[-87.382417999595916,39.607937000301604],[-87.382419000319132,39.606886999809852],[-87.382616999787544,39.605329999737542],[-87.383609000372644,39.604277000202948],[-87.385057999993919,39.603652000284065],[-87.386125999848673,39.603286000311826],[-87.386675999669592,39.60252299991221],[-87.387088000296558,39.600294999658686],[-87.388414999719089,39.598120000158865],[-87.389763999781252,39.596689999804425],[-87.392001999598051,39.594320999848435],[-87.392994000183151,39.59284799972091],[-87.393118999856611,39.589735999909308],[-87.393024000320381,39.589605000139876],[-87.392475000324367,39.587995000063508],[-87.391375999609153,39.586019000128999],[-87.390353999785134,39.584348000189969],[-87.390079000323837,39.582113000088093],[-87.390751000343485,39.580160000244476],[-87.392230999926909,39.577871000322055],[-87.394260000404643,39.576001999722806],[-87.396914999972935,39.574018000305706],[-87.398350000248811,39.573286000337887],[-87.400718999586857,39.572835999921111],[-87.401431999614388,39.572453999669278],[-87.402546000398218,39.571607000298727],[-87.403767000413865,39.570211000324399],[-87.403811999721398,39.568509999873307],[-87.403095000394231,39.566824000074931],[-87.402603000299635,39.5657719996872],[-87.402485000298853,39.565518999860174],[-87.402041999709752,39.564122999884098],[-87.402393000237353,39.563459000151028],[-87.402988000264102,39.562956000066528],[-87.403065000256987,39.562941999799953],[-87.404391999679518,39.562719000020678],[-87.405719999825294,39.563070000054324],[-87.406909999878792,39.563986000152042],[-87.407351999744691,39.564779000243803],[-87.40895500025006,39.566266999659774],[-87.411639999955582,39.566458000127163],[-87.414401999654018,39.565701999783641],[-87.415591999707516,39.564976999891137],[-87.415708999883378,39.564780000236404],[-87.416919999853278,39.562733999661866],[-87.41694499996764,39.562631000075029],[-87.418715999804178,39.555396999717267],[-87.418781000101518,39.555135000335078],[-87.418610000397308,39.554157999835653],[-87.418529000206433,39.553692000285366],[-87.418400000335012,39.552955000330229],[-87.418336999687511,39.552588999915606],[-87.418143000417061,39.551465000299906],[-87.417001999869044,39.549982999701783],[-87.416888999891142,39.549706999792541],[-87.416106000441729,39.547782999988584],[-87.415682999944124,39.545025999889226],[-87.415718000104221,39.542864999836148],[-87.416176999688531,39.540869000127657],[-87.416257999879392,39.54052100031587],[-87.41677400026343,39.538999000116405],[-87.416979000302817,39.538398000251895],[-87.417530999773561,39.536488999808441],[-87.417953000446275,39.535519000149392],[-87.418082000317696,39.535167999967797],[-87.419010000430376,39.533690000181494],[-87.419751000047,39.532708000293958],[-87.420668000289027,39.531494999704854],[-87.42112199985047,39.529696999941685]]]},"properties":{"NAME":"Otter Creek township","GEOID":"1816757294"}}]}